{
  "norad_id": 58080,
  "name": "STARLINK-30603",
  "history": [
    {
      "epoch": "2026-03-28T16:54:05.737248Z",
      "apogee_km": 483.8830907269394,
      "perigee_km": 482.1856369315283,
      "latitude_deg": -3.138201758666414e-05,
      "longitude_deg": -109.1277983052228,
      "height_km": 482.8888584659477,
      "semi_major_axis_km": 6861.171363829233,
      "eccentricity": 0.0001237,
      "inclination_deg": 42.9997,
      "raan_deg": 330.517,
      "arg_perigee_deg": 264.7286,
      "mean_anomaly_deg": 95.3424,
      "mean_motion_rev_day": 15.2758492
    },
    {
      "epoch": "2026-03-29T00:44:52.363968Z",
      "apogee_km": 483.84000542246395,
      "perigee_km": 482.19470060861113,
      "latitude_deg": -2.316356261240347e-06,
      "longitude_deg": 131.01001910939556,
      "height_km": 482.92745510755964,
      "semi_major_axis_km": 6861.154353015537,
      "eccentricity": 0.0001199,
      "inclination_deg": 42.9984,
      "raan_deg": 328.6713,
      "arg_perigee_deg": 260.6409,
      "mean_anomaly_deg": 99.4307,
      "mean_motion_rev_day": 15.27590601
    },
    {
      "epoch": "2026-03-30T00:17:13.498656Z",
      "apogee_km": 483.849247459063,
      "perigee_km": 482.2643116959807,
      "latitude_deg": 4.9850014909274255e-06,
      "longitude_deg": 131.4122454410546,
      "height_km": 482.67483529101014,
      "semi_major_axis_km": 6861.193779577522,
      "eccentricity": 0.0001155,
      "inclination_deg": 43.0023,
      "raan_deg": 323.1283,
      "arg_perigee_deg": 281.552,
      "mean_anomaly_deg": 78.5202,
      "mean_motion_rev_day": 15.27577434
    },
    {
      "epoch": "2026-03-30T00:17:13.499520Z",
      "apogee_km": 483.84931607100225,
      "perigee_km": 482.2642430840433,
      "latitude_deg": 5.755514998977344e-06,
      "longitude_deg": 131.41224265284268,
      "height_km": 482.67482155295727,
      "semi_major_axis_km": 6861.193779577522,
      "eccentricity": 0.00011551,
      "inclination_deg": 43.0023,
      "raan_deg": 323.1283,
      "arg_perigee_deg": 281.552,
      "mean_anomaly_deg": 78.5202,
      "mean_motion_rev_day": 15.27577434
    },
    {
      "epoch": "2026-03-30T08:08:00.636864Z",
      "apogee_km": 483.95323053415086,
      "perigee_km": 482.19881836379955,
      "latitude_deg": -1.4566193871517487e-05,
      "longitude_deg": 11.549974449274563,
      "height_km": 482.8944811208763,
      "semi_major_axis_km": 6861.213024448975,
      "eccentricity": 0.00012785,
      "inclination_deg": 42.9967,
      "raan_deg": 321.2847,
      "arg_perigee_deg": 267.2407,
      "mean_anomaly_deg": 92.8298,
      "mean_motion_rev_day": 15.27571007
    },
    {
      "epoch": "2026-03-30T22:15:25.496352Z",
      "apogee_km": 483.64578484888443,
      "perigee_km": 482.4996883744807,
      "latitude_deg": 6.742812391244625e-05,
      "longitude_deg": 155.79284688402413,
      "height_km": 482.8143536138709,
      "semi_major_axis_km": 6861.209736611682,
      "eccentricity": 8.352e-05,
      "inclination_deg": 42.9979,
      "raan_deg": 317.9611,
      "arg_perigee_deg": 273.4373,
      "mean_anomaly_deg": 86.6384,
      "mean_motion_rev_day": 15.27572105
    },
    {
      "epoch": "2026-03-31T07:40:21.826848Z",
      "apogee_km": 483.60985819643247,
      "perigee_km": 482.51343865241324,
      "latitude_deg": 2.4378595669331066e-05,
      "longitude_deg": 11.954604204229428,
      "height_km": 482.7746659432088,
      "semi_major_axis_km": 6861.198648424423,
      "eccentricity": 7.99e-05,
      "inclination_deg": 43.0007,
      "raan_deg": 315.7443,
      "arg_perigee_deg": 276.6244,
      "mean_anomaly_deg": 83.4517,
      "mean_motion_rev_day": 15.27575808
    },
    {
      "epoch": "2026-04-01T21:20:07.088352Z",
      "apogee_km": 483.9130168205602,
      "perigee_km": 482.1785098179935,
      "latitude_deg": -6.43151613953111e-05,
      "longitude_deg": 156.606475172864,
      "height_km": 482.7108756241695,
      "semi_major_axis_km": 6861.182763319276,
      "eccentricity": 0.0001264,
      "inclination_deg": 43.0003,
      "raan_deg": 306.8816,
      "arg_perigee_deg": 277.3883,
      "mean_anomaly_deg": 82.6824,
      "mean_motion_rev_day": 15.27581113
    },
    {
      "epoch": "2026-04-02T06:45:03.081024Z",
      "apogee_km": 483.6846005837042,
      "perigee_km": 482.36423868010934,
      "latitude_deg": 1.5372568531007253e-06,
      "longitude_deg": 12.769859890460527,
      "height_km": 482.7283851547223,
      "semi_major_axis_km": 6861.161419631906,
      "eccentricity": 9.622e-05,
      "inclination_deg": 42.9994,
      "raan_deg": 304.6649,
      "arg_perigee_deg": 276.2872,
      "mean_anomaly_deg": 83.787,
      "mean_motion_rev_day": 15.27588241
    },
    {
      "epoch": "2026-04-03T14:08:09.549024Z",
      "apogee_km": 483.45692754666834,
      "perigee_km": 482.50323227256104,
      "latitude_deg": 6.203670765586388e-05,
      "longitude_deg": -106.681966619528,
      "height_km": 482.72663412615105,
      "semi_major_axis_km": 6861.117079909614,
      "eccentricity": 6.95e-05,
      "inclination_deg": 42.9992,
      "raan_deg": 297.2789,
      "arg_perigee_deg": 273.5389,
      "mean_anomaly_deg": 86.5384,
      "mean_motion_rev_day": 15.27603049
    },
    {
      "epoch": "2026-04-04T05:49:44.097600Z",
      "apogee_km": 484.78204729341087,
      "perigee_km": 481.4370523754351,
      "latitude_deg": -5.2040131644500276e-05,
      "longitude_deg": 13.586973328707282,
      "height_km": 482.7936280206309,
      "semi_major_axis_km": 6861.246549834423,
      "eccentricity": 0.00024376,
      "inclination_deg": 43.0047,
      "raan_deg": 293.5864,
      "arg_perigee_deg": 273.2202,
      "mean_anomaly_deg": 86.837,
      "mean_motion_rev_day": 15.27559811
    }
  ]
}